FLOCK 4G-13             
1 62621U 25009N   26068.70638971  .00053076  00000+0  16695-2 0  9995
2 62621  97.4019 151.0918 0003801 292.7207  67.3633 15.32770015 63700
STARLINK-35475          
1 65865U 25223M   26067.92912022  .00014747  00000+0  50901-3 0  9992
2 65865  53.1572 297.3932 0001193  75.0810 285.0323 15.30202900 24095
